[{"OBJECT_NAME":"STARLINK-36209","OBJECT_ID":"2025-293V","EPOCH":"2026-03-09T04:15:53.702496","MEAN_MOTION":14.98321732,"ECCENTRICITY":0.00026387,"INCLINATION":70.001,"RA_OF_ASC_NODE":95.6454,"ARG_OF_PERICENTER":266.3087,"MEAN_ANOMALY":93.777,"EPHEMERIS_TYPE":0,"CLASSIFICATION_TYPE":"U","NORAD_CAT_ID":67022,"ELEMENT_SET_NO":999,"REV_AT_EPOCH":1481,"BSTAR":-0.00072279762,"MEAN_MOTION_DOT":-8.704e-5,"MEAN_MOTION_DDOT":0},{"OBJECT_NAME":"PSLV R\/B","OBJECT_ID":"2018-071C","EPOCH":"2026-03-09T22:40:07.416192","MEAN_MOTION":15.00058604,"ECCENTRICITY":0.00237177,"INCLINATION":97.444,"RA_OF_ASC_NODE":249.6196,"ARG_OF_PERICENTER":104.8167,"MEAN_ANOMALY":255.5687,"EPHEMERIS_TYPE":0,"CLASSIFICATION_TYPE":"U","NORAD_CAT_ID":43620,"ELEMENT_SET_NO":999,"REV_AT_EPOCH":40754,"BSTAR":0.00020356401,"MEAN_MOTION_DOT":2.493e-5,"MEAN_MOTION_DDOT":0}]
